ONEWEB-0196             
1 48218U 21031J   24342.56768998 -.00000079  00000+0 -24783-3 0  9997
2 48218  87.9020  40.3911 0001710  99.5633 260.5690 13.14503374175106
ONEWEB-0183             
1 48219U 21031K   24342.54230915  .00000285  00000+0  73342-3 0  9991
2 48219  87.9015  40.4108 0001925 102.3792 257.7553 13.14503838175197
ONEWEB-0185             
1 48220U 21031L   24342.56848387 -.00000074  00000+0 -23501-3 0  9993
2 48220  87.9017  40.3763 0001843 108.9690 251.1639 13.14503808175128
ONEWEB-0187             
1 48221U 21031M   24342.53837010  .00000093  00000+0  21707-3 0  9997
2 48221  87.9017  40.4172 0001823 103.4834 256.6499 13.14502484175136
ONEWEB-0192             
1 48222U 21031N   24342.44242382 -.00000015  00000+0 -74951-4 0  9996
2 48222  87.9016  40.4339 0001681 100.6061 259.5258 13.14504157175037
ONEWEB-0219             
1 48223U 21031P   24342.57402306 -.00000138  00000+0 -40797-3 0  9991
2 48223  87.9018  40.3810 0001794 106.8937 253.2389 13.14500277175257
ONEWEB-0202             
1 48224U 21031Q   24342.55498957  .00000111  00000+0  26591-3 0  9992
2 48224  87.9016  40.4023 0001064 119.2459 240.8778 13.14505470175232
ONEWEB-0204             
1 48225U 21031R   24342.43685966 -.00000093  00000+0 -28547-3 0  9992
2 48225  87.9015  40.4377 0002152  99.8707 260.2666 13.14502868175119
